IRIDIUM 921 [-]         
1 24873U 97034E   24080.21616519  .00026462  00000+0  81588-3 0  9994
2 24873  86.3869 331.9663 0002271 181.3762 178.7482 15.33466303461807
IRIDIUM 26 [-]          
1 24903U 97043A   24080.15593630  .00000578  00000+0  19140-3 0  9994
2 24903  86.3927 301.1439 0002158  92.6272 267.5172 14.36244537392025
IRIDIUM 22 [-]          
1 24907U 97043E   24079.65479643  .00000485  00000+0  16320-3 0  9992
2 24907  86.3939 304.5217 0002054  87.2009 272.9422 14.35138754391553
DUMMY MASS 1 [-]        
1 24925U 97048A   24079.77672683  .00000671  00000+0  73484-4 0  9991
2 24925  86.3394 345.3066 0005488 335.9822  24.1145 14.86097712437861
DUMMY MASS 2 [-]        
1 24926U 97048B   24079.79884522  .00000674  00000+0  74220-4 0  9993
2 24926  86.3397 346.8224 0006672 345.8766  14.2270 14.85856842437652
IRIDIUM 29 [-]          
1 24944U 97051A   24080.24350685  .00000559  00000+0  18741-3 0  9994
2 24944  86.3993 334.2062 0001933  81.8317 278.3099 14.35598533388347
IRIDIUM 33 [-]          
1 24946U 97051C   24079.76923504  .00000361  00000+0  12164-3 0  9991
2 24946  86.3906 333.6633 0009747 114.7155 245.5056 14.34287382387600
IRIDIUM 28 [-]          
1 24948U 97051E   24080.23657478  .00000576  00000+0  18967-3 0  9996
2 24948  86.3994 331.9861 0002443  94.3535 265.7942 14.36547357388729
